OBJECT_NAME,OBJECT_ID,EPOCH,MEAN_MOTION,ECCENTRICITY,INCLINATION,RA_OF_ASC_NODE,ARG_OF_PERICENTER,MEAN_ANOMALY,EPHEMERIS_TYPE,CLASSIFICATION_TYPE,NORAD_CAT_ID,ELEMENT_SET_NO,REV_AT_EPOCH,BSTAR,MEAN_MOTION_DOT,MEAN_MOTION_DDOT
STARLINK-37577,2026-127K,2026-07-02T13:26:57.549120,15.75294288,.0001466,53.1589,185.5858,141.9532,218.1592,0,U,69452,999,383,.95286E-3,.148369E-2,0
STARLINK-37500,2026-127L,2026-07-01T17:52:46.986528,15.75308584,.00019092,53.1567,189.7477,82.6122,277.5115,0,U,69453,999,370,.15387157E-2,.242862E-2,0
STARLINK-37575,2026-127M,2026-07-02T13:20:54.357216,15.75283140,.0001547,53.1594,185.5583,66.5930,293.5253,0,U,69454,999,383,.12225E-2,.191432E-2,0
STARLINK-37642,2026-127N,2026-07-02T13:47:02.380704,15.75311187,.0001012,53.1561,185.6774,94.5736,265.5400,0,U,69455,999,383,.12534E-2,.196634E-2,0
STARLINK-37513,2026-127P,2026-07-02T11:04:40.029888,15.80954476,.000096,53.1565,185.6638,124.2271,235.8843,0,U,69456,999,382,.10571E-2,.213986E-2,0
STARLINK-37563,2026-127Q,2026-07-02T07:21:30.968352,15.78985513,.0012848,53.1588,186.8467,297.2409,62.7304,0,U,69457,999,379,.37159E-1,.8442893E-1,0
STARLINK-37565,2026-127R,2026-07-02T11:42:31.751136,15.75295799,.0001394,53.1582,185.8387,97.6942,262.4237,0,U,69458,999,382,.1129E-2,.176522E-2,0
STARLINK-37498,2026-127S,2026-07-02T13:40:02.162208,15.75293002,.0001672,53.1564,185.6441,104.2356,255.8850,0,U,69459,999,383,.97117E-3,.151278E-2,0
STARLINK-37384,2026-127T,2026-07-02T11:49:03.768672,15.75304734,.0001189,53.1592,185.8697,125.6835,234.4296,0,U,69460,999,382,.11616E-2,.181812E-2,0
STARLINK-37707,2026-127U,2026-07-02T11:43:00.103296,15.75300604,.0001668,53.1588,185.8402,123.1317,236.9863,0,U,69461,999,382,.13932E-2,.219133E-2,0
STARLINK-37525,2026-127V,2026-07-02T13:07:21.421344,15.75298968,.0001086,53.1578,185.4923,63.8913,296.2219,0,U,69462,999,383,.1094E-2,.170935E-2,0
STARLINK-37526,2026-127W,2026-07-02T11:29:56.010336,15.75286618,.0001228,53.1571,185.7800,115.8813,244.2334,0,U,69463,999,382,.11457E-2,.179125E-2,0
STARLINK-37574,2026-127X,2026-07-02T11:36:27.817056,15.75287805,.0000821,53.1576,185.8085,108.6759,251.4350,0,U,69464,999,382,.9607E-3,.149574E-2,0
STARLINK-37535,2026-127Y,2026-07-02T11:29:27.349728,15.75291901,.0001622,53.1569,185.7758,108.9546,251.1650,0,U,69465,999,382,.88709E-3,.137898E-2,0
STARLINK-37583,2026-127Z,2026-07-02T16:56:09.621024,15.75306529,.0000754,53.1589,184.3352,100.8445,259.2660,0,U,69466,999,386,.12578E-2,.197314E-2,0
STARLINK-37546,2026-127AA,2026-07-02T17:28:50.432736,15.75310536,.0001318,53.1568,184.4842,92.1851,267.9320,0,U,69467,999,386,.1158E-2,.181296E-2,0
STARLINK-37532,2026-127AB,2026-07-02T16:00:01.998720,15.75259701,.0000956,53.1591,184.3695,88.1578,128.0573,0,U,69468,999,513,-.49332E-3,-.75653E-3,0
STARLINK-37708,2026-127AC,2026-07-02T17:28:21.971712,15.75311770,.0001064,53.1568,184.4811,90.2048,269.9094,0,U,69469,999,386,.11425E-2,.178807E-2,0
STARLINK-37686,2026-127AD,2026-07-02T14:19:34.586112,15.75279102,.0000901,53.1580,185.0840,108.8842,251.2276,0,U,69470,999,384,.69776E-3,.107881E-2,0
STARLINK-37451,2026-127AE,2026-07-02T13:19:44.890752,15.80968349,.0001657,53.1567,184.8091,41.1923,318.9225,0,U,69471,999,384,.10606E-2,.214869E-2,0
DTC TEST OBJECT A,2026-128A,2026-07-02T12:28:30.058176,15.53302700,.0010119,55.0004,234.1888,337.3377,22.7209,0,U,69472,999,361,.25324E-3,.15815E-3,0
DTC TEST OBJECT B,2026-128B,2026-06-27T09:02:13.824960,15.56860342,.0009934,55.0021,257.9040,325.3113,34.7274,0,U,69473,999,280,.3356545E-3,.24134E-3,0
TJS-25,2026-129A,2026-07-02T18:15:42.778656,1.00270336,.0002479,5.9678,330.2823,287.7401,56.9568,0,U,69474,999,21,0,-.357E-5,0
STARLINK-37816,2026-131A,2026-07-02T12:10:43.891680,15.80936970,.0000486,97.2822,204.6736,64.4524,295.6795,0,U,69478,999,458,.14098E-2,.280322E-2,0
STARLINK-37878,2026-131B,2026-07-02T15:21:07.482816,15.80994710,.0001514,97.2834,204.8013,64.3000,295.8424,0,U,69479,999,460,.15216E-2,.304185E-2,0
STARLINK-37817,2026-131C,2026-07-02T16:00:01.998720,15.80776829,.0001807,97.2834,204.8472,101.2192,93.1313,0,U,69480,999,449,.21289E-3,.40756E-3,0
STARLINK-37727,2026-131D,2026-07-02T06:02:52.608192,15.80850172,.0001685,97.2851,204.4092,77.9216,282.2241,0,U,69481,999,454,.14159E-2,.280416E-2,0
STARLINK-37814,2026-131E,2026-07-02T16:00:01.998720,15.80852646,.0001403,97.2836,204.8510,98.0666,104.7612,0,U,69482,999,449,-.90663E-4,-.17502E-3,0
STARLINK-37869,2026-131F,2026-07-02T12:05:19.326624,15.81015317,.0001057,97.2823,204.6788,27.9484,332.1841,0,U,69483,999,458,.24291E-2,.497195E-2,0
STARLINK-37873,2026-131G,2026-07-02T16:37:54.240096,15.80917018,.0001079,97.2836,204.8800,123.6171,236.5200,0,U,69484,999,461,.33996E-2,.710289E-2,0
